ONEWEB-0216             
1 48801U 21045AL  23304.87907785 -.00000019  00000+0 -83219-4 0  9994
2 48801  87.8962  90.2022 0001788  84.3560 275.7775 13.15695572119294
ONEWEB-0239             
1 48802U 21045AM  23304.88378775 -.00000065  00000+0 -20643-3 0  9999
2 48802  87.8973  90.1567 0000798  63.9813 296.1400 13.15598218118216
ONEWEB-0249             
1 48967U 21060A   23305.04645764 -.00000303  00000+0 -82515-3 0  9993
2 48967  87.9076  59.6628 0001681 100.9410 259.1910 13.16595123114694
ONEWEB-0250             
1 48968U 21060B   23304.82269574  .00000685  00000+0  17577-2 0  9996
2 48968  87.9071  59.6925 0001264  96.9274 263.2000 13.16592874113357
ONEWEB-0252             
1 48970U 21060D   23304.85015303  .00000078  00000+0  16917-3 0  9995
2 48970  87.9076  59.6950 0002241 100.2520 259.8864 13.16594253113422
ONEWEB-0253             
1 48971U 21060E   23305.06757454  .00000944  00000+0  24362-2 0  9994
2 48971  87.9000  59.7013 0001663  88.2652 271.8669 13.16588902114667
ONEWEB-0254             
1 48972U 21060F   23304.84803367  .00000033  00000+0  52752-4 0  9990
2 48972  87.9075  59.6850 0001453  91.3247 268.8050 13.16596814113356
ONEWEB-0255             
1 48973U 21060G   23305.03803542 -.00001306  00000+0 -34519-2 0  9993
2 48973  87.9075  59.6826 0001113 110.8956 249.2295 13.16586220114745
